[{"OBJECT_NAME":"SCS-01 B","OBJECT_ID":"2025-100B","EPOCH":"2026-03-09T21:49:11.508672","MEAN_MOTION":15.3317485,"ECCENTRICITY":0.00088698,"INCLINATION":97.3706,"RA_OF_ASC_NODE":145.9041,"ARG_OF_PERICENTER":288.6157,"MEAN_ANOMALY":71.4122,"EPHEMERIS_TYPE":0,"CLASSIFICATION_TYPE":"U","NORAD_CAT_ID":63983,"ELEMENT_SET_NO":999,"REV_AT_EPOCH":4567,"BSTAR":0.00098809397,"MEAN_MOTION_DOT":0.00031724,"MEAN_MOTION_DDOT":0},{"OBJECT_NAME":"STARLINK-34882","OBJECT_ID":"2025-244X","EPOCH":"2026-03-09T17:02:34.265184","MEAN_MOTION":15.30195652,"ECCENTRICITY":0.00012103,"INCLINATION":53.1598,"RA_OF_ASC_NODE":229.7417,"ARG_OF_PERICENTER":56.6324,"MEAN_ANOMALY":303.4792,"EPHEMERIS_TYPE":0,"CLASSIFICATION_TYPE":"U","NORAD_CAT_ID":66227,"ELEMENT_SET_NO":999,"REV_AT_EPOCH":2166,"BSTAR":0.00094450525,"MEAN_MOTION_DOT":0.00027715,"MEAN_MOTION_DDOT":0}]
